[{"OBJECT_NAME":"COSMOS 2494 (SKRL-756 2)","OBJECT_ID":"2013-078B","EPOCH":"2026-03-09T22:07:38.657280","MEAN_MOTION":15.04216116,"ECCENTRICITY":0.00160459,"INCLINATION":82.4161,"RA_OF_ASC_NODE":348.0656,"ARG_OF_PERICENTER":176.5861,"MEAN_ANOMALY":183.5478,"EPHEMERIS_TYPE":0,"CLASSIFICATION_TYPE":"U","NORAD_CAT_ID":39491,"ELEMENT_SET_NO":999,"REV_AT_EPOCH":66388,"BSTAR":0.0003906904,"MEAN_MOTION_DOT":5.469e-5,"MEAN_MOTION_DDOT":0},{"OBJECT_NAME":"STARLINK-34969","OBJECT_ID":"2025-179G","EPOCH":"2026-03-09T15:46:24.233088","MEAN_MOTION":15.05662612,"ECCENTRICITY":0.00019639,"INCLINATION":97.6036,"RA_OF_ASC_NODE":112.935,"ARG_OF_PERICENTER":125.6061,"MEAN_ANOMALY":234.5349,"EPHEMERIS_TYPE":0,"CLASSIFICATION_TYPE":"U","NORAD_CAT_ID":65241,"ELEMENT_SET_NO":999,"REV_AT_EPOCH":3181,"BSTAR":-1.2887071e-5,"MEAN_MOTION_DOT":-2.47e-6,"MEAN_MOTION_DDOT":0}]
